[{"OBJECT_NAME":"FLOCK 4BE-18","OBJECT_ID":"2024-149N","EPOCH":"2026-04-26T18:46:22.215648","MEAN_MOTION":15.4018489,"ECCENTRICITY":0.00050228,"INCLINATION":97.3729,"RA_OF_ASC_NODE":200.041,"ARG_OF_PERICENTER":92.322,"MEAN_ANOMALY":267.8601,"EPHEMERIS_TYPE":0,"CLASSIFICATION_TYPE":"U","NORAD_CAT_ID":60480,"ELEMENT_SET_NO":999,"REV_AT_EPOCH":9439,"BSTAR":0.00058053977,"MEAN_MOTION_DOT":0.0002327,"MEAN_MOTION_DDOT":0},{"OBJECT_NAME":"FLOCK 4BE-7","OBJECT_ID":"2024-149P","EPOCH":"2026-04-27T04:27:42.768288","MEAN_MOTION":15.38208812,"ECCENTRICITY":0.0004192,"INCLINATION":97.3764,"RA_OF_ASC_NODE":199.9044,"ARG_OF_PERICENTER":96.6265,"MEAN_ANOMALY":263.5457,"EPHEMERIS_TYPE":0,"CLASSIFICATION_TYPE":"U","NORAD_CAT_ID":60481,"ELEMENT_SET_NO":999,"REV_AT_EPOCH":9440,"BSTAR":0.00074497,"MEAN_MOTION_DOT":0.00028029,"MEAN_MOTION_DDOT":0},{"OBJECT_NAME":"FLOCK 4BE-26","OBJECT_ID":"2024-149S","EPOCH":"2026-04-27T04:20:55.605696","MEAN_MOTION":15.55522524,"ECCENTRICITY":0.0002711,"INCLINATION":97.3685,"RA_OF_ASC_NODE":201.1251,"ARG_OF_PERICENTER":143.1035,"MEAN_ANOMALY":217.0406,"EPHEMERIS_TYPE":0,"CLASSIFICATION_TYPE":"U","NORAD_CAT_ID":60484,"ELEMENT_SET_NO":999,"REV_AT_EPOCH":9450,"BSTAR":0.0025398,"MEAN_MOTION_DOT":0.00177078,"MEAN_MOTION_DDOT":0},{"OBJECT_NAME":"FLOCK 4BE-36","OBJECT_ID":"2024-149U","EPOCH":"2026-04-26T18:47:52.593504","MEAN_MOTION":15.41088388,"ECCENTRICITY":0.00051345,"INCLINATION":97.3743,"RA_OF_ASC_NODE":200.6617,"ARG_OF_PERICENTER":100.34,"MEAN_ANOMALY":259.8425,"EPHEMERIS_TYPE":0,"CLASSIFICATION_TYPE":"U","NORAD_CAT_ID":60486,"ELEMENT_SET_NO":999,"REV_AT_EPOCH":9443,"BSTAR":0.0005256206,"MEAN_MOTION_DOT":0.00021694,"MEAN_MOTION_DDOT":0},{"OBJECT_NAME":"FLOCK 4BE-25","OBJECT_ID":"2024-149V","EPOCH":"2026-04-27T05:08:46.670784","MEAN_MOTION":15.37497713,"ECCENTRICITY":0.0003691,"INCLINATION":97.38,"RA_OF_ASC_NODE":200.0723,"ARG_OF_PERICENTER":96.6365,"MEAN_ANOMALY":263.53,"EPHEMERIS_TYPE":0,"CLASSIFICATION_TYPE":"U","NORAD_CAT_ID":60487,"ELEMENT_SET_NO":999,"REV_AT_EPOCH":9440,"BSTAR":0.00049195,"MEAN_MOTION_DOT":0.00018036,"MEAN_MOTION_DDOT":0},{"OBJECT_NAME":"FLOCK 4BE-31","OBJECT_ID":"2024-149W","EPOCH":"2026-04-26T18:55:53.965920","MEAN_MOTION":15.42123519,"ECCENTRICITY":0.00040491,"INCLINATION":97.38,"RA_OF_ASC_NODE":201.3927,"ARG_OF_PERICENTER":104.0292,"MEAN_ANOMALY":256.1406,"EPHEMERIS_TYPE":0,"CLASSIFICATION_TYPE":"U","NORAD_CAT_ID":60488,"ELEMENT_SET_NO":999,"REV_AT_EPOCH":9445,"BSTAR":0.00059308034,"MEAN_MOTION_DOT":0.00025354,"MEAN_MOTION_DDOT":0},{"OBJECT_NAME":"FLOCK 4BE-20","OBJECT_ID":"2024-149X","EPOCH":"2026-04-26T16:42:31.218624","MEAN_MOTION":15.36692667,"ECCENTRICITY":0.00052554,"INCLINATION":97.3702,"RA_OF_ASC_NODE":198.5615,"ARG_OF_PERICENTER":98.8363,"MEAN_ANOMALY":261.3476,"EPHEMERIS_TYPE":0,"CLASSIFICATION_TYPE":"U","NORAD_CAT_ID":60489,"ELEMENT_SET_NO":999,"REV_AT_EPOCH":9430,"BSTAR":0.00050456254,"MEAN_MOTION_DOT":0.0001803,"MEAN_MOTION_DDOT":0},{"OBJECT_NAME":"FLOCK 4BE-23","OBJECT_ID":"2024-149Y","EPOCH":"2026-04-27T04:41:06.672768","MEAN_MOTION":15.36339639,"ECCENTRICITY":0.0005099,"INCLINATION":97.3781,"RA_OF_ASC_NODE":199.4093,"ARG_OF_PERICENTER":103.7132,"MEAN_ANOMALY":256.468,"EPHEMERIS_TYPE":0,"CLASSIFICATION_TYPE":"U","NORAD_CAT_ID":60490,"ELEMENT_SET_NO":999,"REV_AT_EPOCH":9436,"BSTAR":0.00044289,"MEAN_MOTION_DOT":0.00015632,"MEAN_MOTION_DDOT":0},{"OBJECT_NAME":"FLOCK 4BE-15","OBJECT_ID":"2024-149Z","EPOCH":"2026-04-26T17:06:11.911104","MEAN_MOTION":15.48882224,"ECCENTRICITY":0.00055123,"INCLINATION":97.3713,"RA_OF_ASC_NODE":200.594,"ARG_OF_PERICENTER":172.3391,"MEAN_ANOMALY":187.7945,"EPHEMERIS_TYPE":0,"CLASSIFICATION_TYPE":"U","NORAD_CAT_ID":60491,"ELEMENT_SET_NO":999,"REV_AT_EPOCH":9443,"BSTAR":0.0022945195,"MEAN_MOTION_DOT":0.00125415,"MEAN_MOTION_DDOT":0},{"OBJECT_NAME":"FLOCK 4BE-17","OBJECT_ID":"2024-149AA","EPOCH":"2026-04-27T04:20:35.051136","MEAN_MOTION":15.38282318,"ECCENTRICITY":0.0004433,"INCLINATION":97.3778,"RA_OF_ASC_NODE":200.2073,"ARG_OF_PERICENTER":96.1448,"MEAN_ANOMALY":264.0302,"EPHEMERIS_TYPE":0,"CLASSIFICATION_TYPE":"U","NORAD_CAT_ID":60492,"ELEMENT_SET_NO":999,"REV_AT_EPOCH":9441,"BSTAR":0.0005566,"MEAN_MOTION_DOT":0.00020952,"MEAN_MOTION_DDOT":0},{"OBJECT_NAME":"FLOCK 4BE-22","OBJECT_ID":"2024-149AC","EPOCH":"2026-04-27T04:58:29.686656","MEAN_MOTION":15.39600363,"ECCENTRICITY":0.0005048,"INCLINATION":97.3735,"RA_OF_ASC_NODE":200.3482,"ARG_OF_PERICENTER":101.1169,"MEAN_ANOMALY":259.0644,"EPHEMERIS_TYPE":0,"CLASSIFICATION_TYPE":"U","NORAD_CAT_ID":60494,"ELEMENT_SET_NO":999,"REV_AT_EPOCH":9445,"BSTAR":0.00053506,"MEAN_MOTION_DOT":0.00021026,"MEAN_MOTION_DDOT":0},{"OBJECT_NAME":"FLOCK 4BE-34","OBJECT_ID":"2024-149AD","EPOCH":"2026-04-26T18:29:29.446080","MEAN_MOTION":15.39652146,"ECCENTRICITY":0.0005367,"INCLINATION":97.3782,"RA_OF_ASC_NODE":200.6959,"ARG_OF_PERICENTER":109.4266,"MEAN_ANOMALY":250.756,"EPHEMERIS_TYPE":0,"CLASSIFICATION_TYPE":"U","NORAD_CAT_ID":60495,"ELEMENT_SET_NO":999,"REV_AT_EPOCH":9441,"BSTAR":0.0005088756,"MEAN_MOTION_DOT":0.00020026,"MEAN_MOTION_DDOT":0},{"OBJECT_NAME":"FLOCK 4BE-32","OBJECT_ID":"2024-149AF","EPOCH":"2026-04-27T05:20:25.044576","MEAN_MOTION":15.4041594,"ECCENTRICITY":0.0005279,"INCLINATION":97.3722,"RA_OF_ASC_NODE":200.669,"ARG_OF_PERICENTER":106.0049,"MEAN_ANOMALY":254.1779,"EPHEMERIS_TYPE":0,"CLASSIFICATION_TYPE":"U","NORAD_CAT_ID":60497,"ELEMENT_SET_NO":999,"REV_AT_EPOCH":9448,"BSTAR":0.00052409,"MEAN_MOTION_DOT":0.00021154,"MEAN_MOTION_DDOT":0},{"OBJECT_NAME":"FLOCK 4BE-30","OBJECT_ID":"2024-149AH","EPOCH":"2026-04-27T05:10:23.075040","MEAN_MOTION":15.45971962,"ECCENTRICITY":0.0003556,"INCLINATION":97.3792,"RA_OF_ASC_NODE":201.47,"ARG_OF_PERICENTER":166.6585,"MEAN_ANOMALY":193.4759,"EPHEMERIS_TYPE":0,"CLASSIFICATION_TYPE":"U","NORAD_CAT_ID":60499,"ELEMENT_SET_NO":999,"REV_AT_EPOCH":9387,"BSTAR":0.002221,"MEAN_MOTION_DOT":0.00109539,"MEAN_MOTION_DDOT":0},{"OBJECT_NAME":"FLOCK 4BE-11","OBJECT_ID":"2024-149AK","EPOCH":"2026-04-26T18:58:24.222432","MEAN_MOTION":15.4124768,"ECCENTRICITY":0.00053572,"INCLINATION":97.3701,"RA_OF_ASC_NODE":200.412,"ARG_OF_PERICENTER":107.0111,"MEAN_ANOMALY":253.1723,"EPHEMERIS_TYPE":0,"CLASSIFICATION_TYPE":"U","NORAD_CAT_ID":60501,"ELEMENT_SET_NO":999,"REV_AT_EPOCH":9443,"BSTAR":0.00052328553,"MEAN_MOTION_DOT":0.00021713,"MEAN_MOTION_DDOT":0},{"OBJECT_NAME":"FLOCK 4BE-24","OBJECT_ID":"2024-149AP","EPOCH":"2026-04-27T03:59:16.363968","MEAN_MOTION":15.41162965,"ECCENTRICITY":0.0005448,"INCLINATION":97.3721,"RA_OF_ASC_NODE":201.0372,"ARG_OF_PERICENTER":113.945,"MEAN_ANOMALY":246.2368,"EPHEMERIS_TYPE":0,"CLASSIFICATION_TYPE":"U","NORAD_CAT_ID":60505,"ELEMENT_SET_NO":999,"REV_AT_EPOCH":9450,"BSTAR":0.00060834,"MEAN_MOTION_DOT":0.00025196,"MEAN_MOTION_DDOT":0}]
